NORAD_CAT_ID,OBJECT_NAME,OBJECT_TYPE,EPOCH,MEAN_MOTION,ECCENTRICITY,INCLINATION,RA_OF_ASC_NODE,ARG_OF_PERICENTER,MEAN_ANOMALY,BSTAR,MEAN_MOTION_DOT,MEAN_MOTION_DDOT,TLE_LINE0,TLE_LINE1,TLE_LINE2,SEMIMAJOR_AXIS,PERIOD,APOGEE,PERIGEE,DECAYED
52273.0,STARLINK-3782,PAYLOAD,2024-01-16 08:47:12,15.08863919,0.0001434,53.2168,15.9766,96.8843,263.2312,0.0003643,5.518e-05,0.0,0 STARLINK-3782,1 52273U 22041N   24016.36611340  .00005518  00000-0  36430-3 0  9993,2 52273  53.2168  15.9766 0001434  96.8843 263.2312 15.08863919 97465,6917.807,95.436,540.664,538.68,0.0
52273.0,STARLINK-3782,PAYLOAD,2024-01-17 03:51:50,15.08833466,0.0001386,53.2174,12.413,106.3414,253.773,-0.0001381,-2.485e-05,0.0,0 STARLINK-3782,1 52273U 22041N   24017.16100515 -.00002485  00000-0 -13810-3 0  9998,2 52273  53.2174  12.4130 0001386 106.3414 253.7730 15.08833466 97581,6917.9,95.438,540.724,538.807,0.0
52273.0,STARLINK-3782,PAYLOAD,2024-01-17 07:02:37,15.08837649,0.0001402,53.2179,11.8189,82.5092,277.6059,1.0434e-05,-1.22e-06,0.0,0 STARLINK-3782,1 52273U 22041N   24017.29349075 -.00000122  00000-0  10434-4 0  9993,2 52273  53.2179  11.8189 0001402  82.5092 277.6059 15.08837649 96382,6917.888,95.438,540.722,538.783,0.0
52273.0,STARLINK-3782,PAYLOAD,2024-01-18 08:28:45,15.08880502,0.0001584,53.2194,7.0565,103.2125,256.9043,0.0002036,2.957e-05,0.0,0 STARLINK-3782,1 52273U 22041N   24018.35329936  .00002957  00000-0  20360-3 0  9990,2 52273  53.2194   7.0565 0001584 103.2125 256.9043 15.08880502 97765,6917.757,95.435,540.717,538.526,0.0
52273.0,STARLINK-3782,PAYLOAD,2024-01-18 22:47:16,15.0883323,0.0001637,53.2182,4.385,83.0304,277.0874,0.00011239,1.501e-05,0.0,0 STARLINK-3782,1 52273U 22041N   24018.94949157  .00001501  00000-0  11239-3 0  9997,2 52273  53.2182   4.3850 0001637  83.0304 277.0874 15.08833230 96639,6917.901,95.438,540.899,538.634,0.0
52273.0,STARLINK-3782,PAYLOAD,2024-01-19 03:33:25,15.08831901,0.000146,53.2183,3.4929,82.3118,277.804,9.3803e-05,1.205e-05,0.0,0 STARLINK-3782,1 52273U 22041N   24019.14821382  .00001205  00000-0  93803-4 0  9998,2 52273  53.2183   3.4929 0001460  82.3118 277.8040 15.08831901 97880,6917.905,95.438,540.78,538.76,0.0
52273.0,STARLINK-3782,PAYLOAD,2024-01-19 08:19:34,15.08838484,0.0001494,53.2175,2.5998,90.3354,269.781,0.00013943,1.932e-05,0.0,0 STARLINK-3782,1 52273U 22041N   24019.34692953  .00001932  00000-0  13943-3 0  9993,2 52273  53.2175   2.5998 0001494  90.3354 269.7810 15.08838484 97917,6917.885,95.438,540.784,538.716,0.0
52273.0,STARLINK-3782,PAYLOAD,2024-01-19 22:38:02,15.0885074,0.0001688,53.2186,359.9223,116.4671,243.6495,-0.00019435,-3.381e-05,0.0,0 STARLINK-3782,1 52273U 22041N   24019.94308464 -.00003381  00000-0 -19435-3 0  9994,2 52273  53.2186 359.9223 0001688 116.4671 243.6495 15.08850740 96789,6917.848,95.437,540.88,538.545,0.0
52273.0,STARLINK-3782,PAYLOAD,2024-01-20 03:24:11,15.08854965,0.0001768,53.2188,359.0313,116.4533,243.6641,-7.3633e-05,-1.46e-05,0.0,0 STARLINK-3782,1 52273U 22041N   24020.14180137 -.00001460  00000-0 -73633-4 0  9990,2 52273  53.2188 359.0313 0001768 116.4533 243.6641 15.08854965 98034,6917.835,95.437,540.923,538.477,0.0
52273.0,STARLINK-3782,PAYLOAD,2024-01-20 04:59:34,15.08855264,0.0001735,53.2187,358.734,115.0094,245.1079,-4.6169e-05,-1.023e-05,0.0,0 STARLINK-3782,1 52273U 22041N   24020.20804110 -.00001023  00000-0 -46169-4 0  9990,2 52273  53.2187 358.7340 0001735 115.0094 245.1079 15.08855264 96820,6917.834,95.437,540.899,538.498,0.0
52273.0,STARLINK-3782,PAYLOAD,2024-01-21 03:14:59,15.0884102,0.000174,53.2182,354.5701,114.449,245.6683,0.00014856,2.077e-05,0.0,0 STARLINK-3782,1 52273U 22041N   24021.13540994  .00002077  00000-0  14856-3 0  9995,2 52273  53.2182 354.5701 0001740 114.4490 245.6683 15.08841020 98181,6917.877,95.437,540.946,538.539,0.0
52273.0,STARLINK-3782,PAYLOAD,2024-01-21 04:50:22,15.08842108,0.0001589,53.2184,354.2733,103.8654,256.2515,0.00020131,2.917e-05,0.0,0 STARLINK-3782,1 52273U 22041N   24021.20165037  .00002917  00000-0  20131-3 0  9990,2 52273  53.2184 354.2733 0001589 103.8654 256.2515 15.08842108 96975,6917.874,95.437,540.838,538.64,0.0
52273.0,STARLINK-3782,PAYLOAD,2024-01-21 22:19:37,15.08840471,0.000169,53.2181,350.9995,114.0846,246.0323,6.1447e-06,-1.9e-06,0.0,0 STARLINK-3782,1 52273U 22041N   24021.93029005 -.00000190  00000-0  61447-5 0  9993,2 52273  53.2181 350.9995 0001690 114.0846 246.0323 15.08840471 97083,6917.879,95.438,540.913,538.575,0.0
52273.0,STARLINK-3782,PAYLOAD,2024-01-22 03:05:46,15.08845607,0.0001614,53.2182,350.1082,110.91,249.2065,6.1872e-05,6.97e-06,0.0,0 STARLINK-3782,1 52273U 22041N   24022.12900716  .00000697  00000-0  61872-4 0  9994,2 52273  53.2182 350.1082 0001614 110.9100 249.2065 15.08845607 97115,6917.863,95.437,540.845,538.612,0.0
52273.0,STARLINK-3782,PAYLOAD,2024-01-22 07:51:55,15.08849226,0.0001819,53.2185,349.2147,118.7646,241.3529,0.00010044,1.311e-05,0.0,0 STARLINK-3782,1 52273U 22041N   24022.32772338  .00001311  00000-0  10044-3 0  9991,2 52273  53.2185 349.2147 0001819 118.7646 241.3529 15.08849226 98364,6917.852,95.437,540.976,538.459,0.0
52273.0,STARLINK-3782,PAYLOAD,2024-01-23 02:56:33,15.08843438,0.0002174,53.2185,345.6434,132.31,227.8076,-4.7455e-06,-3.64e-06,0.0,0 STARLINK-3782,1 52273U 22041N   24023.12260663 -.00000364  00000-0 -47455-5 0  9990,2 52273  53.2185 345.6434 0002174 132.3100 227.8076 15.08843438 98483,6917.87,95.437,541.239,538.231,0.0
52273.0,STARLINK-3782,PAYLOAD,2024-01-24 04:22:43,15.08850555,0.0001422,53.2185,340.894,89.7573,270.3582,0.00016103,2.276e-05,0.0,0 STARLINK-3782,1 52273U 22041N   24024.18244687  .00002276  00000-0  16103-3 0  9991,2 52273  53.2185 340.8940 0001422  89.7573 270.3582 15.08850555 98647,6917.848,95.437,540.697,538.729,0.0
52273.0,STARLINK-3782,PAYLOAD,2024-01-25 02:38:07,15.08839788,0.0001388,53.2188,336.7299,90.1645,269.9507,0.00010047,1.311e-05,0.0,0 STARLINK-3782,1 52273U 22041N   24025.10981342  .00001311  00000-0  10047-3 0  9990,2 52273  53.2188 336.7299 0001388  90.1645 269.9507 15.08839788 98789,6917.881,95.438,540.706,538.786,0.0
52273.0,STARLINK-3782,PAYLOAD,2024-01-25 04:13:31,15.08840147,0.0001391,53.2188,336.4322,91.1193,268.9959,0.00010276,1.348e-05,0.0,0 STARLINK-3782,1 52273U 22041N   24025.17605328  .00001348  00000-0  10276-3 0  9998,2 52273  53.2188 336.4322 0001391  91.1193 268.9959 15.08840147 97573,6917.88,95.438,540.707,538.783,0.0
52273.0,STARLINK-3782,PAYLOAD,2024-01-26 04:04:18,15.08841921,0.0002133,53.22,331.9723,59.4107,300.7095,8.25e-05,1.025e-05,0.0,0 STARLINK-3782,1 52273U 22041N   24026.16965858  .00001025  00000-0  82500-4 0  9997,2 52273  53.2200 331.9723 0002133  59.4107 300.7095 15.08841921 98949,6917.875,95.437,541.215,538.264,0.0
52273.0,STARLINK-3782,PAYLOAD,2024-01-27 02:19:42,15.08844874,0.0002105,53.218,327.8144,59.3579,300.7621,0.00023091,3.389e-05,0.0,0 STARLINK-3782,1 52273U 22041N   24027.09702012  .00003389  00000-0  23091-3 0  9995,2 52273  53.2180 327.8144 0002105  59.3579 300.7621 15.08844874 97863,6917.865,95.437,541.187,538.274,0.0
52273.0,STARLINK-3782,PAYLOAD,2024-01-28 02:10:29,15.0884133,0.0001689,53.2195,323.3558,78.406,281.7122,7.2476e-05,8.66e-06,0.0,0 STARLINK-3782,1 52273U 22041N   24028.09062121  .00000866  00000-0  72476-4 0  9995,2 52273  53.2195 323.3558 0001689  78.4060 281.7122 15.08841330 99233,6917.876,95.437,540.91,538.573,0.0
52273.0,STARLINK-3782,PAYLOAD,2024-01-28 22:50:30,15.08840108,0.0001722,53.2187,319.4844,108.525,251.593,-1.2833e-05,-4.92e-06,0.0,0 STARLINK-3782,1 52273U 22041N   24028.95174070 -.00000492  00000-0 -12833-4 0  9995,2 52273  53.2187 319.4844 0001722 108.5250 251.5930 15.08840108 98145,6917.88,95.438,540.936,538.554,0.0
52273.0,STARLINK-3782,PAYLOAD,2024-01-29 05:12:02,15.08843848,0.0001726,53.2194,318.2901,110.9491,249.1686,5.0664e-05,5.18e-06,0.0,0 STARLINK-3782,1 52273U 22041N   24029.21669881  .00000518  00000-0  50664-4 0  9995,2 52273  53.2194 318.2901 0001726 110.9491 249.1686 15.08843848 99407,6917.869,95.437,540.928,538.54,0.0
52273.0,STARLINK-3782,PAYLOAD,2024-01-30 01:52:04,15.08818116,0.0001732,53.2194,314.4247,101.922,258.1966,0.00046526,7.12e-05,0.0,0 STARLINK-3782,1 52273U 22041N   24030.07782534  .00007120  00000-0  46526-3 0  9999,2 52273  53.2194 314.4247 0001732 101.9220 258.1966 15.08818116 99530,6917.947,95.439,541.01,538.614,0.0
52273.0,STARLINK-3782,PAYLOAD,2024-01-30 05:02:49,15.08836981,0.0001542,53.2197,313.8303,99.2656,260.8511,0.0001872,2.692e-05,0.0,0 STARLINK-3782,1 52273U 22041N   24030.21030055  .00002692  00000-0  18720-3 0  9993,2 52273  53.2197 313.8303 0001542  99.2656 260.8511 15.08836981 99558,6917.89,95.438,540.821,538.688,0.0
52273.0,STARLINK-3782,PAYLOAD,2024-01-30 22:32:04,15.08839248,0.0001477,53.2193,310.5594,97.5013,262.6147,3.4094e-05,2.55e-06,0.0,0 STARLINK-3782,1 52273U 22041N   24030.93894297  .00000255  00000-0  34094-4 0  9994,2 52273  53.2193 310.5594 0001477  97.5013 262.6147 15.08839248 98446,6917.883,95.438,540.769,538.726,0.0
52273.0,STARLINK-3782,PAYLOAD,2024-01-31 00:07:27,15.08840377,0.0001483,53.2189,310.2621,97.0026,263.1135,4.3119e-05,3.98e-06,0.0,0 STARLINK-3782,1 52273U 22041N   24031.00518177  .00000398  00000-0  43119-4 0  9999,2 52273  53.2189 310.2621 0001483  97.0026 263.1135 15.08840377 98454,6917.879,95.438,540.77,538.718,0.0
52273.0,STARLINK-3782,PAYLOAD,2024-01-31 17:36:42,15.08836738,0.0001437,53.2184,306.9951,115.918,244.1961,5.0871e-05,5.22e-06,0.0,0 STARLINK-3782,1 52273U 22041N   24031.73382342  .00000522  00000-0  50871-4 0  9994,2 52273  53.2184 306.9951 0001437 115.9180 244.1961 15.08836738 99786,6917.89,95.438,540.749,538.761,0.0
52273.0,STARLINK-3782,PAYLOAD,2024-01-31 23:58:15,15.08824243,0.000157,53.2184,305.8046,113.5345,246.5812,0.00018574,2.668e-05,0.0,0 STARLINK-3782,1 52273U 22041N   24031.99878693  .00002668  00000-0  18574-3 0  9997,2 52273  53.2184 305.8046 0001570 113.5345 246.5812 15.08824243 99828,6917.929,95.439,540.88,538.707,0.0
